ONEWEB-0196             
1 48218U 21031J   26191.66132848 -.00000117  00000+0 -35130-3 0  9992
2 48218  87.8969 285.0302 0002194  98.9921 261.1457 13.14502206251318
ONEWEB-0183             
1 48219U 21031K   26192.24489828  .00000197  00000+0  49620-3 0  9996
2 48219  87.8968 284.9114 0002025  93.4300 266.7061 13.14501857251482
ONEWEB-0185             
1 48220U 21031L   26191.20540141 -.00000149  00000+0 -43730-3 0  9994
2 48220  87.8975 285.1138 0002251  90.1848 269.9539 13.14503520251274
ONEWEB-0187             
1 48221U 21031M   26192.02274781  .00000160  00000+0  39794-3 0  9996
2 48221  87.8968 284.9649 0002226 101.4647 258.6733 13.14502289251391
ONEWEB-0192             
1 48222U 21031N   26192.22111321 -.00000137  00000+0 -40403-3 0  9994
2 48222  87.8968 284.9153 0002134 100.4682 259.6688 13.14503025251331
ONEWEB-0219             
1 48223U 21031P   26191.66765968 -.00000192  00000+0 -55259-3 0  9990
2 48223  87.8983 285.0192 0002221  95.3365 264.8018 13.14503449251460
ONEWEB-0202             
1 48224U 21031Q   26192.25759146  .00000138  00000+0  33781-3 0  9992
2 48224  87.8972 284.9137 0002579 108.2564 251.8847 13.14502558251520
ONEWEB-0204             
1 48225U 21031R   26192.21554767 -.00000168  00000+0 -48638-3 0  9993
2 48225  87.8973 284.9159 0001869  86.4497 273.6846 13.14499557251412
ONEWEB-0205             
1 48226U 21031S   26192.19097910 -.00000022  00000+0 -94783-4 0  9995
2 48226  87.8973 284.9170 0002335  98.5679 261.5716 13.14502680251426
ONEWEB-0206             
1 48227U 21031T   26192.24013539  .00000153  00000+0  37687-3 0  9999
2 48227  87.8972 284.9068 0001909 101.1190 259.0154 13.14501615251387
ONEWEB-0182             
1 48228U 21031U   26192.23537523  .00000177  00000+0  44232-3 0  9993
2 48228  87.8959 284.9157 0001987  97.9639 262.1716 13.14504143251599
ONEWEB-0186             
1 48229U 21031V   26190.19130197  .00000106  00000+0  25022-3 0  9991
2 48229  87.8985 285.3137 0002131 101.1848 258.9522 13.14502615251279
ONEWEB-0181             
1 48230U 21031W   26192.22426417 -.00000288  00000+0 -81018-3 0  9992
2 48230  87.8958 284.9342 0002289  99.5167 260.6222 13.14502566251397
ONEWEB-0188             
1 48231U 21031X   26192.26233664  .00000083  00000+0  18956-3 0  9999
2 48231  87.8962 284.9266 0002111  97.4164 262.7206 13.14502055251305
ONEWEB-0220             
1 48232U 21031Y   26192.22585282 -.00000037  00000+0 -13329-3 0  9992
2 48232  87.8973 284.9106 0002335  95.3919 264.7477 13.14504062251564
ONEWEB-0165             
1 48233U 21031Z   26191.26488536  .00000100  00000+0  23448-3 0  9992
2 48233  87.8971 285.1133 0002410 103.7881 256.3517 13.14503611251394
ONEWEB-0199             
1 48234U 21031AA  26192.23855491  .00000224  00000+0  57006-3 0  9993
2 48234  87.8978 284.9065 0001853 102.3864 257.7473 13.14502069251425
ONEWEB-0203             
1 48235U 21031AB  26192.22903346  .00000094  00000+0  21825-3 0  9991
2 48235  87.8971 284.9118 0001980 107.0855 253.0491 13.14501274251438
ONEWEB-0197             
1 48236U 21031AC  26192.20351961 -.00000174  00000+0 -50501-3 0  9994
2 48236  87.8968 284.9004 0002056  91.4022 268.7343 13.14502209251344
ONEWEB-0194             
1 48237U 21031AD  26192.25916608  .00000126  00000+0  30546-3 0  9997
2 48237  87.8972 284.9127 0001923 103.9266 256.2078 13.14503617251528
ONEWEB-0193             
1 48238U 21031AE  26192.19890809 -.00000126  00000+0 -37320-3 0  9994
2 48238  87.8970 284.9146 0001766 108.8507 251.2814 13.14502268251462
ONEWEB-0191             
1 48239U 21031AF  26192.21000646 -.00000211  00000+0 -60292-3 0  9999
2 48239  87.8976 284.9126 0002010  94.2369 265.8990 13.14506341251321
ONEWEB-0195             
1 48240U 21031AG  26192.26313282  .00000086  00000+0  19643-3 0  9991
2 48240  87.8977 284.9028 0002469 100.8279 259.3129 13.14503421251314
ONEWEB-0201             
1 48241U 21031AH  26192.25137309  .00000206  00000+0  52115-3 0  9990
2 48241  87.8970 284.9195 0002120  90.7473 269.3900 13.14502306251544
ONEWEB-0207             
1 48242U 21031AJ  26192.23139808  .00000027  00000+0  39401-4 0  9990
2 48242  87.8973 284.9097 0002150  91.8199 268.3177 13.14504547251453
ONEWEB-0208             
1 48243U 21031AK  26192.21317546 -.00000198  00000+0 -56799-3 0  9995
2 48243  87.8969 284.9188 0002405 103.8886 256.2511 13.14502310251465
ONEWEB-0200             
1 48244U 21031AL  26192.25282998  .00000218  00000+0  55411-3 0  9993
2 48244  87.8983 284.8999 0002090  97.1201 263.0166 13.14501900251395
ONEWEB-0217             
1 48245U 21031AM  26192.19256435 -.00000052  00000+0 -17458-3 0  9991
2 48245  87.8974 284.9163 0002354 102.3195 257.8199 13.14502791251334
ONEWEB-0211             
1 48767U 21045A   26192.51730529 -.00000036  00000+0 -12914-3 0  9996
2 48767  87.8990 254.2293 0002611 107.9638 252.1778 13.16197228247641
ONEWEB-0223             
1 48768U 21045B   26191.16258343  .00000127  00000+0  30339-3 0  9996
2 48768  87.8997 254.6145 0002236 109.5767 250.5605 13.15548350247425
