OBJECT_NAME,OBJECT_ID,EPOCH,MEAN_MOTION,ECCENTRICITY,INCLINATION,RA_OF_ASC_NODE,ARG_OF_PERICENTER,MEAN_ANOMALY,EPHEMERIS_TYPE,CLASSIFICATION_TYPE,NORAD_CAT_ID,ELEMENT_SET_NO,REV_AT_EPOCH,BSTAR,MEAN_MOTION_DOT,MEAN_MOTION_DDOT
ONEWEB-0196,2021-031J,2026-07-10T15:52:18.780672,13.14502206,.0002194,87.8969,285.0302,98.9921,261.1457,0,U,48218,999,25131,-.3513E-3,-.117E-5,0
ONEWEB-0183,2021-031K,2026-07-11T05:52:39.211392,13.14501857,.0002025,87.8968,284.9114,93.4300,266.7061,0,U,48219,999,25148,.4962E-3,.197E-5,0
ONEWEB-0185,2021-031L,2026-07-10T04:55:46.681824,13.14503520,.00022515,87.8975,285.1138,90.1848,269.9539,0,U,48220,999,25127,-.43730262E-3,-.149E-5,0
ONEWEB-0187,2021-031M,2026-07-11T00:32:45.410784,13.14502289,.0002226,87.8968,284.9649,101.4647,258.6733,0,U,48221,999,25139,.39794E-3,.16E-5,0
ONEWEB-0192,2021-031N,2026-07-11T05:18:24.181344,13.14503025,.0002134,87.8968,284.9153,100.4682,259.6688,0,U,48222,999,25133,-.40403E-3,-.137E-5,0
ONEWEB-0219,2021-031P,2026-07-10T16:01:25.796352,13.14503449,.0002221,87.8983,285.0192,95.3365,264.8018,0,U,48223,999,25146,-.55259E-3,-.192E-5,0
ONEWEB-0202,2021-031Q,2026-07-11T06:10:55.902144,13.14502558,.0002579,87.8972,284.9137,108.2564,251.8847,0,U,48224,999,25152,.33781E-3,.138E-5,0
ONEWEB-0204,2021-031R,2026-07-11T05:10:23.318688,13.14499557,.0001869,87.8973,284.9159,86.4497,273.6846,0,U,48225,999,25141,-.48638E-3,-.168E-5,0
ONEWEB-0205,2021-031S,2026-07-11T04:35:00.594240,13.14502680,.0002335,87.8973,284.9170,98.5679,261.5716,0,U,48226,999,25142,-.94783E-4,-.22E-6,0
ONEWEB-0206,2021-031T,2026-07-11T05:45:47.697696,13.14501615,.0001909,87.8972,284.9068,101.1190,259.0154,0,U,48227,999,25138,.37687E-3,.153E-5,0
ONEWEB-0182,2021-031U,2026-07-11T05:38:56.419872,13.14504143,.0001987,87.8959,284.9157,97.9639,262.1716,0,U,48228,999,25159,.44232E-3,.177E-5,0
ONEWEB-0186,2021-031V,2026-07-09T04:35:28.490208,13.14502615,.00021312,87.8985,285.3137,101.1848,258.9522,0,U,48229,999,25127,.25021886E-3,.106E-5,0
ONEWEB-0181,2021-031W,2026-07-11T05:22:56.424288,13.14502566,.0002289,87.8958,284.9342,99.5167,260.6222,0,U,48230,999,25139,-.81018E-3,-.288E-5,0
ONEWEB-0188,2021-031X,2026-07-11T06:17:45.885696,13.14502055,.0002111,87.8962,284.9266,97.4164,262.7206,0,U,48231,999,25130,.18956E-3,.83E-6,0
ONEWEB-0220,2021-031Y,2026-07-11T05:25:13.683648,13.14504062,.0002335,87.8973,284.9106,95.3919,264.7477,0,U,48232,999,25156,-.13329E-3,-.37E-6,0
ONEWEB-0165,2021-031Z,2026-07-10T06:21:26.095104,13.14503611,.000241,87.8971,285.1133,103.7881,256.3517,0,U,48233,999,25139,.23447719E-3,.1E-5,0
ONEWEB-0199,2021-031AA,2026-07-11T05:43:31.144224,13.14502069,.0001853,87.8978,284.9065,102.3864,257.7473,0,U,48234,999,25142,.57006E-3,.224E-5,0
ONEWEB-0203,2021-031AB,2026-07-11T05:29:48.490944,13.14501274,.000198,87.8971,284.9118,107.0855,253.0491,0,U,48235,999,25143,.21825E-3,.94E-6,0
ONEWEB-0197,2021-031AC,2026-07-11T04:53:04.094304,13.14502209,.0002056,87.8968,284.9004,91.4022,268.7343,0,U,48236,999,25134,-.50501E-3,-.174E-5,0
ONEWEB-0194,2021-031AD,2026-07-11T06:13:11.949312,13.14503617,.0001923,87.8972,284.9127,103.9266,256.2078,0,U,48237,999,25152,.30546E-3,.126E-5,0
ONEWEB-0193,2021-031AE,2026-07-11T04:46:25.658976,13.14502268,.0001766,87.8970,284.9146,108.8507,251.2814,0,U,48238,999,25146,-.3732E-3,-.126E-5,0
ONEWEB-0191,2021-031AF,2026-07-11T05:02:24.558144,13.14506341,.000201,87.8976,284.9126,94.2369,265.8990,0,U,48239,999,25132,-.60292E-3,-.211E-5,0
ONEWEB-0195,2021-031AG,2026-07-11T06:18:54.675648,13.14503421,.0002469,87.8977,284.9028,100.8279,259.3129,0,U,48240,999,25131,.19643E-3,.86E-6,0
ONEWEB-0201,2021-031AH,2026-07-11T06:01:58.634976,13.14502306,.000212,87.8970,284.9195,90.7473,269.3900,0,U,48241,999,25154,.52115E-3,.206E-5,0
ONEWEB-0207,2021-031AJ,2026-07-11T05:33:12.794112,13.14504547,.000215,87.8973,284.9097,91.8199,268.3177,0,U,48242,999,25145,.39401E-4,.27E-6,0
ONEWEB-0208,2021-031AK,2026-07-11T05:06:58.359744,13.14502310,.0002405,87.8969,284.9188,103.8886,256.2511,0,U,48243,999,25146,-.56799E-3,-.198E-5,0
ONEWEB-0200,2021-031AL,2026-07-11T06:04:04.510272,13.14501900,.000209,87.8983,284.8999,97.1201,263.0166,0,U,48244,999,25139,.55411E-3,.218E-5,0
ONEWEB-0217,2021-031AM,2026-07-11T04:37:17.559840,13.14502791,.0002354,87.8974,284.9163,102.3195,257.8199,0,U,48245,999,25133,-.17458E-3,-.52E-6,0
ONEWEB-0211,2021-045A,2026-07-11T12:24:55.177056,13.16197228,.0002611,87.8990,254.2293,107.9638,252.1778,0,U,48767,999,24764,-.12914E-3,-.36E-6,0
ONEWEB-0223,2021-045B,2026-07-10T03:54:07.208352,13.15548350,.00022368,87.8997,254.6145,109.5767,250.5605,0,U,48768,999,24742,.30339123E-3,.127E-5,0
